     2.100          NAVIGATION                              RINEX VERSION / TYPE
fic2rin                                 02/17/2017 01:06:05 PGM / RUN BY / DATE
                                                            END OF HEADER
28 17  2 16 18  0  0.0  .590296462178D-03  .272848410532D-11  .000000000000D+00
     .660000000000D+02 -.346875000000D+02  .388587614805D-08 -.127575728633D+01
    -.159256160259D-05  .199327723822D-01  .865384936333D-05  .515364436150D+04
     .410400000000D+06 -.186264514923D-06 -.265861343742D+01  .435858964920D-06
     .989171482460D+00  .230031250000D+03 -.157522045585D+01 -.798390399022D-08
    -.347871633107D-09  .100000000000D+01  .193600000000D+04  .000000000000D+00
     .240000000000D+01  .000000000000D+00 -.111758708954D-07  .660000000000D+02
     .403206000000D+06  .400000000000D+01
29 17  2 16 18  0  0.0  .626318156719D-03 -.250111042988D-11  .000000000000D+00
     .910000000000D+02  .124375000000D+02  .401731019424D-08  .975547418551D-01
     .594183802605D-06  .656659132801D-03  .818446278572D-05  .515367527962D+04
     .410400000000D+06  .242143869400D-07 -.163476172054D+01 -.149011611938D-07
     .979876206314D+00  .232625000000D+03 -.163637813383D+00 -.787032783074D-08
     .217866217860D-09  .100000000000D+01  .193600000000D+04  .000000000000D+00
     .240000000000D+01  .000000000000D+00 -.102445483208D-07  .910000000000D+02
     .403206000000D+06  .400000000000D+01
30 17  2 16 18  0  0.0  .160627998412D-03  .000000000000D+00  .000000000000D+00
     .960000000000D+02  .210000000000D+02  .513771400641D-08  .140863978819D+01
     .122189521790D-05  .243038136978D-02  .454671680927D-05  .515371309471D+04
     .410400000000D+06  .372529029846D-07  .255990630525D+01 -.372529029846D-07
     .949114920229D+00  .283312500000D+03  .306578891275D+01 -.856749972790D-08
    -.124290891500D-09  .100000000000D+01  .193600000000D+04  .000000000000D+00
     .340000000000D+01  .000000000000D+00  .372529029846D-08  .960000000000D+02
     .403206000000D+06  .400000000000D+01
31 17  2 16 18  0  0.0  .218672212213D-03 -.227373675443D-11  .000000000000D+00
     .140000000000D+02  .198437500000D+02  .465483674978D-08  .117673952253D+01
     .117905437946D-05  .854462187272D-02  .423006713390D-05  .515364712715D+04
     .410400000000D+06  .139698386192D-06  .253004802730D+01  .106170773506D-06
     .968117730149D+00  .296656250000D+03 -.284237501439D+00 -.822534261854D-08
    -.202508435289D-09  .100000000000D+01  .193600000000D+04  .000000000000D+00
     .240000000000D+01  .000000000000D+00 -.135041773319D-07  .140000000000D+02
     .403206000000D+06  .400000000000D+01
32 17  2 16 18  0  0.0 -.322256237268D-03 -.137561073643D-10  .000000000000D+00
     .800000000000D+02  .512187500000D+02  .464233622908D-08 -.124986383529D+01
     .271014869213D-05  .760867609642D-03  .920891761780D-05  .515369651031D+04
     .410400000000D+06  .372529029846D-08  .144334074777D+01  .372529029846D-08
     .958109288755D+00  .202218750000D+03 -.278816463196D+01 -.803283459980D-08
     .146077513286D-09  .100000000000D+01  .193600000000D+04  .000000000000D+00
     .240000000000D+01  .000000000000D+00  .465661287308D-09  .800000000000D+02
     .403206000000D+06  .400000000000D+01
 8 17  2 16 17 59 44.0 -.497833825648D-04 -.136424205266D-11  .000000000000D+00
     .800000000000D+01  .214687500000D+02  .423660504303D-08 -.146971727485D+01
     .112131237984D-05  .251686200500D-02  .941753387451D-05  .515359202003D+04
     .410384000000D+06 -.111758708954D-07 -.170100693020D+01  .875443220139D-07
     .965625931545D+00  .203500000000D+03 -.861821154539D+00 -.799319009131D-08
     .318941856637D-09  .100000000000D+01  .193600000000D+04  .000000000000D+00
     .240000000000D+01  .000000000000D+00  .465661287308D-08  .800000000000D+01
     .409176000000D+06  .400000000000D+01
30 17  2 16 17 59 28.0  .160626601428D-03 -.113686837722D-12  .000000000000D+00
     .300000000000D+01  .210000000000D+02  .513735684868D-08  .140397317022D+01
     .122189521790D-05  .243038928602D-02  .454671680927D-05  .515371309853D+04
     .410368000000D+06  .372529029846D-07  .255990659198D+01 -.372529029846D-07
     .949114924618D+00  .283312500000D+03  .306578810083D+01 -.856749972790D-08
    -.124290891500D-09  .100000000000D+01  .193600000000D+04  .000000000000D+00
     .240000000000D+01  .000000000000D+00  .372529029846D-08  .300000000000D+01
     .409866000000D+06  .400000000000D+01
30 17  2 16 19 59 28.0  .160626135767D-03 -.113686837722D-12  .000000000000D+00
     .500000000000D+01  .227812500000D+02  .520164524083D-08  .245451615661D+01
     .123865902424D-05  .243058160413D-02  .442937016487D-05  .515371133995D+04
     .417568000000D+06 -.577419996262D-07  .255984448087D+01  .372529029846D-07
     .949114468187D+00  .290125000000D+03  .306540772018D+01 -.853071248127D-08
    -.282154610015D-10  .100000000000D+01  .193600000000D+04  .000000000000D+00
     .240000000000D+01  .000000000000D+00  .372529029846D-08  .500000000000D+01
     .410406000000D+06  .400000000000D+01
 8 17  2 16 19 59 44.0 -.497926957905D-04 -.136424205266D-11  .000000000000D+00
     .900000000000D+01  .158437500000D+02  .426803492364D-08 -.420127063590D+00
     .797212123871D-06  .251560658216D-02  .870041549206D-05  .515358816147D+04
     .417584000000D+06 -.104308128357D-06 -.170106353196D+01 -.856816768646D-07
     .965627827486D+00  .216968750000D+03 -.861181857875D+00 -.795997442203D-08
     .162506769059D-09  .100000000000D+01  .193600000000D+04  .000000000000D+00
     .240000000000D+01  .000000000000D+00  .465661287308D-08  .900000000000D+01
     .410406000000D+06  .400000000000D+01
 1 17  2 16 20  0  0.0  .494006089866D-04  .909494701773D-12  .000000000000D+00
     .710000000000D+02 -.141250000000D+02  .453054585828D-08  .306489765770D+01
    -.687316060066D-06  .622828525957D-02  .545196235180D-05  .515368854904D+04
     .417600000000D+06  .111758708954D-07 -.638279613651D+00 -.596046447754D-07
     .966638951112D+00  .278781250000D+03  .541535378151D+00 -.809390857235D-08
     .164292557730D-09  .100000000000D+01  .193600000000D+04  .000000000000D+00
     .240000000000D+01  .000000000000D+00  .512227416039D-08  .710000000000D+02
     .410406000000D+06  .400000000000D+01
 2 17  2 16 20  0  0.0  .474575906992D-03 -.682121026330D-11  .000000000000D+00
     .660000000000D+02 -.176250000000D+02  .493163399378D-08 -.281905044895D+01
    -.882893800735D-06  .166438466404D-01  .530108809471D-05  .515373210716D+04
     .417600000000D+06  .195577740669D-06 -.689513989140D+00 -.165775418282D-06
     .945494421809D+00  .266625000000D+03 -.202024029941D+01 -.811926677148D-08
     .242867259253D-09  .100000000000D+01  .193600000000D+04  .000000000000D+00
     .240000000000D+01  .000000000000D+00 -.204890966415D-07  .660000000000D+02
     .410406000000D+06  .400000000000D+01
 3 17  2 16 20  0  0.0 -.107458326966D-03 -.227373675443D-12  .000000000000D+00
     .870000000000D+02 -.336875000000D+02  .451947396852D-08  .212169068386D+01
    -.176765024662D-05  .489496276714D-03  .891461968422D-05  .515379900932D+04
     .417600000000D+06 -.111758708954D-07  .403538808737D+00  .428408384323D-07
     .960033748711D+00  .203375000000D+03  .420038131337D+00 -.801890544817D-08
    -.125719522437D-09  .100000000000D+01  .193600000000D+04  .000000000000D+00
     .340000000000D+01  .000000000000D+00  .186264514923D-08  .870000000000D+02
     .410406000000D+06  .400000000000D+01
 5 17  2 16 20  0  0.0 -.602831132710D-04  .204636307899D-11  .000000000000D+00
     .650000000000D+02 -.414687500000D+02  .486341686655D-08 -.276665302872D+00
    -.202842056751D-05  .491213437635D-02  .886246562004D-05  .515368728828D+04
     .417600000000D+06  .707805156708D-07  .388060585401D+00  .242143869400D-07
     .947023427213D+00  .200125000000D+03  .556387670043D+00 -.827820196320D-08
    -.152149194768D-09  .100000000000D+01  .193600000000D+04  .000000000000D+00
     .240000000000D+01  .000000000000D+00 -.107102096081D-07  .650000000000D+02
     .410406000000D+06  .400000000000D+01
 6 17  2 16 20  0  0.0  .313428230584D-03  .500222085975D-11  .000000000000D+00
     .490000000000D+02 -.168125000000D+02  .459697719684D-08 -.291279705120D+01
    -.819563865662D-06  .665182364173D-03  .544078648090D-05  .515361542130D+04
     .417600000000D+06  .130385160446D-07 -.646665711080D+00 -.651925802231D-07
     .966422835687D+00  .278812500000D+03 -.135028837330D+01 -.815926843771D-08
     .132505519387D-09  .100000000000D+01  .193600000000D+04  .000000000000D+00
     .240000000000D+01  .000000000000D+00  .419095158577D-08  .490000000000D+02
     .410406000000D+06  .400000000000D+01
 7 17  2 16 20  0  0.0  .381954014301D-03 -.386535248253D-11  .000000000000D+00
     .440000000000D+02  .249687500000D+02  .478734226916D-08  .245072732752D+01
     .123865902424D-05  .101348889293D-01  .475347042084D-05  .515360391617D+04
     .417600000000D+06 -.169500708580D-06  .251947574509D+01 -.175088644028D-06
     .963338656202D+00  .292343750000D+03 -.261419771578D+01 -.822605693400D-08
    -.357157734196D-11  .100000000000D+01  .193600000000D+04  .000000000000D+00
     .240000000000D+01  .000000000000D+00 -.111758708954D-07  .440000000000D+02
     .410406000000D+06  .400000000000D+01
 9 17  2 16 20  0  0.0  .304997432977D-03  .761701812735D-11  .000000000000D+00
     .400000000000D+02  .603750000000D+02  .470948188311D-08 -.895768616221D+00
     .303052365780D-05  .915980432183D-03  .982731580734D-05  .515369340515D+04
     .417600000000D+06  .111758708954D-07  .144058246108D+01  .186264514923D-07
     .953589758418D+00  .190781250000D+03  .175496098304D+01 -.810355183117D-08
     .183221917643D-09  .100000000000D+01  .193600000000D+04  .000000000000D+00
     .240000000000D+01  .000000000000D+00  .139698386192D-08  .400000000000D+02
     .410406000000D+06  .400000000000D+01
